ABS-2A (MONGOLSAT-1)    
1 41588U 16038A   23273.74493854 -.00000095  00000+0  00000+0 0  9998
2 41588   0.0100 222.3982 0001856 279.2956 210.4240  1.00270828 26758
EUTELSAT 117 WEST B     
1 41589U 16038B   23273.68830054 -.00000023  00000+0  00000+0 0  9990
2 41589   0.0208  44.6321 0000037 142.8311 312.5058  1.00271176 26770
BRISAT                  
1 41591U 16039A   23272.92549231 -.00000209  00000+0  00000+0 0  9990
2 41591   0.0215 224.5805 0002266 321.3694 306.1521  1.00271929 26670
ECHOSTAR 18             
1 41592U 16039B   23273.48440657 -.00000294  00000+0  00000+0 0  9999
2 41592   0.0188 175.2335 0001673  18.2296 288.5494  1.00271108 26683
MUOS-5                  
1 41622U 16041A   23273.24148455 -.00000164  00000+0  00000+0 0  9997
2 41622   4.5060 297.8405 0200743 247.3243 165.5331  1.00271713 27159
TIANTONG-1 1            
1 41725U 16048A   23273.53124413 -.00000329  00000+0  00000+0 0  9991
2 41725   2.3721  19.7422 0003724 279.3869   2.5591  1.00273304 26337
JCSAT-16                
1 41729U 16050A   23273.38041455 -.00000318  00000+0  00000+0 0  9993
2 41729   0.0022 173.7396 0001366  69.5527  38.5507  1.00270702 26123
USA 270                 
1 41744U 16052A   23258.32909214 -.00000360  00000+0  00000+0 0  9992
2 41744   1.6007  90.0571 0001161 186.7014 313.5717  1.00165983 18047
USA 271                 
1 41745U 16052B   23269.06399463  .00000117  00000+0  00000+0 0  9994
2 41745   1.6006  89.8487 0002035 143.7810 203.5398  1.00156174  8759
INTELSAT 36 (IS-36)     
1 41747U 16053A   23273.08040844 -.00000037  00000+0  00000+0 0  9992
2 41747   0.0123 198.8004 0002522 166.0915 101.1212  1.00269008 26013
INTELSAT 33E (IS-33E)   
1 41748U 16053B   23273.15032677  .00000036  00000+0  00000+0 0  9994
2 41748   0.0155 250.9510 0002049 298.1567 293.6634  1.00273006 26316
INSAT-3DR               
1 41752U 16054A   23273.15311150 -.00000090  00000+0  00000+0 0  9997
2 41752   0.0905  87.3840 0012717 176.0076 234.3936  1.00271564 25867
GSAT-18                 
1 41793U 16060A   23273.15311150 -.00000089  00000+0  00000+0 0  9997
2 41793   0.0358  90.4529 0000534 227.7346 179.5789  1.00271511 25599
SKY MUSTER 2 (NBN1B)    
1 41794U 16060B   23273.41778899 -.00000256  00000+0  00000+0 0  9990
2 41794   0.0119 235.4022 0001675 313.0310 115.6704  1.00271164 25638
HIMAWARI-9              
1 41836U 16064A   23273.75225079 -.00000286  00000+0  00000+0 0  9998
2 41836   0.0220 193.9971 0001241  22.1280 204.6686  1.00270545 25373
SHIJIAN-17 (SJ-17)      
1 41838U 16065A   23273.88044133 -.00000118  00000+0  00000+0 0  9999
2 41838   3.2163  84.4096 0003669 139.1001 263.0857  1.00270710 25300
GOES 16                 
1 41866U 16071A   23273.55315444 -.00000260  00000+0  00000+0 0  9995
2 41866   0.0634 288.0973 0000838 310.9260 253.9491  1.00270726 25169
TIANLIAN 1-04           
1 41869U 16072A   23273.26577307  .00000018  00000+0  00000+0 0  9995
2 41869   0.2268 273.6018 0030600 234.5600 133.0559  1.00270262 25388
WGS F8 (USA 272)        
1 41879U 16075A   23273.45763677 -.00000214  00000+0  00000+0 0  9996
2 41879   0.0150 137.3347 0000339  55.9418 130.2148  1.00270654 24989
FENGYUN 4A              
1 41882U 16077A   23273.84911758 -.00000342  00000+0  00000+0 0  9992
2 41882   0.2198 285.9256 0004279 102.8432  30.6840  1.00284362 25053
ECHOSTAR 19             
1 41893U 16079A   23273.11889734 -.00000151  00000+0  00000+0 0  9992
2 41893   0.0197 168.1770 0001651  22.1059 124.0341  1.00271639 24770
JCSAT-110A (JCSAT-15)   
1 41903U 16082A   23273.78940084 -.00000362  00000+0  00000+0 0  9991
2 41903   0.0223 184.4372 0001325  43.7628 175.3198  1.00269103 24851
STAR ONE D1             
1 41904U 16082B   23273.49193639 -.00000223  00000+0  00000+0 0  9992
2 41904   0.0151 149.5272 0002418  50.3200 262.2421  1.00270903 24852
TJS-2                   
1 41911U 17001A   23273.15163212 -.00000018  00000+0  00000+0 0  9991
2 41911   0.1223 299.0335 0002328 328.6352 222.0644  1.00269045 24789
SBIRS GEO-4 (USA 273)   
1 41937U 17004A   23273.61898757 -.00000157  00000+0  00000+0 0  9996
2 41937   1.5919 338.0607 0002107 220.0832 296.9967  1.00271300 24665
HISPASAT 36W-1          
1 41942U 17006A   23273.70448675 -.00000256  00000+0  00000+0 0  9994
2 41942   0.0154   7.9272 0001003 179.7117  39.1737  1.00272301 24592
TELKOM 3S               
1 41944U 17007A   23273.54085098 -.00000374  00000+0  00000+0 0  9996
2 41944   0.0158 128.4712 0002532  63.8442 129.4306  1.00271885 24285
INTELSAT 32E (IS-32E)   
1 41945U 17007B   23273.48806153 -.00000281  00000+0  00000+0 0  9990
2 41945   0.0189 161.4323 0000324 349.4947 350.5764  1.00272712 24314
ECHOSTAR 23             
1 42070U 17014A   23273.61902882 -.00000069  00000+0  00000+0 0  9993
2 42070   0.0219 185.0990 0002074  10.1384 286.8145  1.00269795 24019
WGS F9 (USA 275)        
1 42075U 17016A   23273.35100091 -.00000109  00000+0  00000+0 0  9998
2 42075   0.0130 194.8496 0000431  36.5768 251.7910  1.00269327 23996
SES-10                  
1 42432U 17017A   23273.48336230 -.00000285  00000+0  00000+0 0  9991
2 42432   0.0347  68.3515 0002690 129.3887 278.3509  1.00270480 23791
CHINASAT 16 (SJ-13)     
1 42662U 17018A   23272.92093785 -.00000365  00000+0  00000+0 0  9999
2 42662   0.0638  91.5461 0003854 172.1851 186.7511  1.00273087 23787
KOREASAT 7              
1 42691U 17023A   23273.23308528 -.00000374  00000+0  00000+0 0  9996
2 42691   0.0323  39.7005 0002026 164.6057   4.2600  1.00272849 23443
SGDC                    
1 42692U 17023B   23273.18384832 -.00000262  00000+0  00000+0 0  9999
2 42692   0.0155 157.3005 0002372  39.6851 163.0064  1.00270461 23515
GSAT-9                  
1 42695U 17024A   23273.52984501 -.00000299  00000+0  00000+0 0  9990
2 42695   0.0270 236.0009 0002377 328.6228  92.4820  1.00273786 23494
INMARSAT 5-F4           
1 42698U 17025A   23273.75744062  .00000064  00000+0  00000+0 0  9994
2 42698   0.0133 204.3327 0000410  94.3822  39.7030  1.00271464 23329
SES-15                  
1 42709U 17026A   23273.68595094  .00000048  00000+0  00000+0 0  9991
2 42709   0.0437  28.2188 0000372 160.1658 298.5796  1.00268773 24259
QZS-2 (MICHIBIKI-2)     
1 42738U 17028A   23272.34865377 -.00000194  00000+0  00000+0 0  9994
2 42738  41.0054 257.5098 0748585 270.4229 105.5337  1.00258303 23202
VIASAT-2                
1 42740U 17029A   23273.48275316 -.00000277  00000+0  00000+0 0  9994
2 42740   0.0245 253.6175 0000076 348.3608 230.8893  1.00270822 23240
EUTELSAT 172B           
1 42741U 17029B   23272.88599743 -.00000018  00000+0  00000+0 0  9994
2 42741   0.0597 156.9844 0000117 192.4792 149.8828  1.00271997 23798
GSAT-19                 
1 42747U 17031A   23273.21959677  .00000113  00000+0  00000+0 0  9992
2 42747   0.0488  90.8376 0003985  37.6952   7.0935  1.00271781 23204
ECHOSTAR 21             
1 42749U 17032A   23273.24910578  .00000050  00000+0  00000+0 0  9995
2 42749   3.0237 314.8767 0002571 235.4279 278.3755  1.00271472 23170
BULGARIASAT-1           
1 42801U 17038A   23273.71197069  .00000000  00000+0  00000+0 0  9999
2 42801   0.0515  96.8017 0002681  96.8693  73.7640  1.00273776 22977
HELLAS-SAT 3            
1 42814U 17040A   23273.75610344  .00000141  00000+0  00000+0 0  9992
2 42814   0.0612  13.3297 0000670 155.0805 152.0349  1.00271627 22927
GSAT-17                 
1 42815U 17040B   23273.68892155 -.00000270  00000+0  00000+0 0  9991
2 42815   0.0461  96.4410 0004994 156.1039  98.1557  1.00271932 22945
INTELSAT 35E (IS-35E)   
1 42818U 17041A   23273.41809535 -.00000250  00000+0  00000+0 0  9994
2 42818   0.0175 249.9660 0001592 300.4768 294.4899  1.00271144 22873
COSMOS 2520             
1 42907U 17046A   23273.76050168  .00000125  00000+0  00000+0 0  9996
2 42907   0.0285 126.5937 0000246 147.9408  53.4996  1.00271292 22450
TDRS 13                 
1 42915U 17047A   23273.35108795 -.00000115  00000+0  00000+0 0  9991
2 42915   3.8872 339.5577 0015745 129.2231  14.9683  1.00271387 22444
QZS-3 (MICHIBIKI-3)     
1 42917U 17048A   23273.54557014 -.00000360  00000+0  00000+0 0  9999
2 42917   0.0678 147.5061 0001945  58.1885 126.7829  1.00269383 22432
AMAZONAS 5              
1 42934U 17053A   23273.50813255 -.00000294  00000+0  00000+0 0  9998
2 42934   0.0466 330.7232 0002670 264.3037 255.8902  1.00270762 22190
ASIASAT 9               
1 42942U 17057A   23273.80068549 -.00000371  00000+0  00000+0 0  9998
2 42942   0.0032 183.3266 0002239   5.8158 230.5058  1.00269751 22019
INTELSAT 37E (IS-37E)   
1 42950U 17059A   23273.70805469 -.00000152  00000+0  00000+0 0  9995
2 42950   0.0217 179.4802 0002827  19.7492  46.8481  1.00269838 22118
BSAT-4A                 
1 42951U 17059B   23273.53620891 -.00000362  00000+0  00000+0 0  9994
2 42951   0.0632  59.8447 0001405  45.3541 206.7083  1.00270429 22019
QZS-4 (MICHIBIKI-4)     
1 42965U 17062A   23272.55770201 -.00000336  00000+0  00000+0 0  9996
2 42965  40.6255 356.1254 0749354 269.7396  82.5943  1.00273262 21861
SES-11 (ECHOSTAR 105)   
1 42967U 17063A   23273.53664906 -.00000101  00000+0  00000+0 0  9992
2 42967   0.0153 190.4795 0002491  27.4259 239.3481  1.00270183 21879
KOREASAT 5A             
1 42984U 17067A   23273.82290186 -.00000369  00000+0  00000+0 0  9998
2 42984   0.0181 209.5024 0001767 355.7162 213.4815  1.00270169 21701
ALCOMSAT 1              
1 43039U 17078A   23273.19146503 -.00000198  00000+0  00000+0 0  9995
2 43039   0.0288 223.7549 0002439 335.3611 213.7089  1.00272637 21350
SBIRS GEO-3 (USA 282)   
1 43162U 18009A   23269.94160628 -.00000264  00000+0  00000+0 0  9993
2 43162   2.7248 327.0219 0019305 237.3979 279.2842  1.00516489 20878
AL YAH 3                
1 43174U 18012A   23273.20602124 -.00000167  00000+0  00000+0 0  9998
2 43174   0.0390  98.8755 0001650  94.9823 228.9171  1.00270690 20908
